[{"OBJECT_NAME":"KUIPER-00082","OBJECT_ID":"2025-151N","EPOCH":"2026-03-15T05:50:34.797984","MEAN_MOTION":14.79932875,"ECCENTRICITY":6.703e-5,"INCLINATION":51.9006,"RA_OF_ASC_NODE":263.5441,"ARG_OF_PERICENTER":96.212,"MEAN_ANOMALY":263.8919,"EPHEMERIS_TYPE":0,"CLASSIFICATION_TYPE":"U","NORAD_CAT_ID":64828,"ELEMENT_SET_NO":999,"REV_AT_EPOCH":3630,"BSTAR":0.00050959066,"MEAN_MOTION_DOT":3.666e-5,"MEAN_MOTION_DDOT":0},{"OBJECT_NAME":"KUIPER-00083","OBJECT_ID":"2025-151P","EPOCH":"2026-03-14T19:55:31.280160","MEAN_MOTION":14.79912231,"ECCENTRICITY":7.912e-5,"INCLINATION":51.8991,"RA_OF_ASC_NODE":272.8597,"ARG_OF_PERICENTER":100.8467,"MEAN_ANOMALY":259.2584,"EPHEMERIS_TYPE":0,"CLASSIFICATION_TYPE":"U","NORAD_CAT_ID":64829,"ELEMENT_SET_NO":999,"REV_AT_EPOCH":3732,"BSTAR":0.0002608228,"MEAN_MOTION_DOT":1.767e-5,"MEAN_MOTION_DDOT":0},{"OBJECT_NAME":"KUIPER-00084","OBJECT_ID":"2025-151Q","EPOCH":"2026-03-15T07:00:39.209472","MEAN_MOTION":14.79914624,"ECCENTRICITY":6.15e-5,"INCLINATION":51.9011,"RA_OF_ASC_NODE":280.8025,"ARG_OF_PERICENTER":77.3967,"MEAN_ANOMALY":282.7064,"EPHEMERIS_TYPE":0,"CLASSIFICATION_TYPE":"U","NORAD_CAT_ID":64830,"ELEMENT_SET_NO":999,"REV_AT_EPOCH":3606,"BSTAR":0.00051608621,"MEAN_MOTION_DOT":3.714e-5,"MEAN_MOTION_DDOT":0},{"OBJECT_NAME":"KUIPER-00085","OBJECT_ID":"2025-151R","EPOCH":"2026-03-15T05:02:04.368192","MEAN_MOTION":14.7992752,"ECCENTRICITY":8.562e-5,"INCLINATION":51.9015,"RA_OF_ASC_NODE":263.7215,"ARG_OF_PERICENTER":106.7522,"MEAN_ANOMALY":253.3534,"EPHEMERIS_TYPE":0,"CLASSIFICATION_TYPE":"U","NORAD_CAT_ID":64831,"ELEMENT_SET_NO":999,"REV_AT_EPOCH":3629,"BSTAR":0.00050488849,"MEAN_MOTION_DOT":3.629e-5,"MEAN_MOTION_DDOT":0},{"OBJECT_NAME":"KUIPER-00086","OBJECT_ID":"2025-151S","EPOCH":"2026-03-15T06:23:43.460736","MEAN_MOTION":14.79938401,"ECCENTRICITY":9.416e-5,"INCLINATION":51.9008,"RA_OF_ASC_NODE":273.4402,"ARG_OF_PERICENTER":77.5807,"MEAN_ANOMALY":282.526,"EPHEMERIS_TYPE":0,"CLASSIFICATION_TYPE":"U","NORAD_CAT_ID":64832,"ELEMENT_SET_NO":999,"REV_AT_EPOCH":3616,"BSTAR":0.00050474687,"MEAN_MOTION_DOT":3.629e-5,"MEAN_MOTION_DDOT":0},{"OBJECT_NAME":"KUIPER-00087","OBJECT_ID":"2025-151T","EPOCH":"2026-03-15T05:13:35.601888","MEAN_MOTION":14.79931761,"ECCENTRICITY":3.512e-5,"INCLINATION":51.8984,"RA_OF_ASC_NODE":256.1333,"ARG_OF_PERICENTER":100.3246,"MEAN_ANOMALY":259.7756,"EPHEMERIS_TYPE":0,"CLASSIFICATION_TYPE":"U","NORAD_CAT_ID":64833,"ELEMENT_SET_NO":999,"REV_AT_EPOCH":3639,"BSTAR":-0.0002545975,"MEAN_MOTION_DOT":-2.161e-5,"MEAN_MOTION_DDOT":0},{"OBJECT_NAME":"KUIPER-00089","OBJECT_ID":"2025-151U","EPOCH":"2026-03-14T19:21:53.830656","MEAN_MOTION":14.79701684,"ECCENTRICITY":0.00012576,"INCLINATION":51.8993,"RA_OF_ASC_NODE":262.9592,"ARG_OF_PERICENTER":91.8041,"MEAN_ANOMALY":268.3065,"EPHEMERIS_TYPE":0,"CLASSIFICATION_TYPE":"U","NORAD_CAT_ID":64834,"ELEMENT_SET_NO":999,"REV_AT_EPOCH":3627,"BSTAR":0.00061437719,"MEAN_MOTION_DOT":4.44e-5,"MEAN_MOTION_DDOT":0},{"OBJECT_NAME":"KUIPER-00090","OBJECT_ID":"2025-151V","EPOCH":"2026-03-15T05:17:29.049504","MEAN_MOTION":14.79935966,"ECCENTRICITY":8.608e-5,"INCLINATION":51.8979,"RA_OF_ASC_NODE":253.6639,"ARG_OF_PERICENTER":88.9291,"MEAN_ANOMALY":271.177,"EPHEMERIS_TYPE":0,"CLASSIFICATION_TYPE":"U","NORAD_CAT_ID":64835,"ELEMENT_SET_NO":999,"REV_AT_EPOCH":3643,"BSTAR":-0.00016033338,"MEAN_MOTION_DOT":-1.443e-5,"MEAN_MOTION_DDOT":0},{"OBJECT_NAME":"KUIPER-00091","OBJECT_ID":"2025-151W","EPOCH":"2026-03-14T19:27:06.433632","MEAN_MOTION":14.80257439,"ECCENTRICITY":0.00010876,"INCLINATION":51.8977,"RA_OF_ASC_NODE":260.4608,"ARG_OF_PERICENTER":47.7849,"MEAN_ANOMALY":312.3206,"EPHEMERIS_TYPE":0,"CLASSIFICATION_TYPE":"U","NORAD_CAT_ID":64836,"ELEMENT_SET_NO":999,"REV_AT_EPOCH":3630,"BSTAR":0.0033050591,"MEAN_MOTION_DOT":0.00025265,"MEAN_MOTION_DDOT":0},{"OBJECT_NAME":"KUIPER-00092","OBJECT_ID":"2025-151X","EPOCH":"2026-03-14T17:37:28.583904","MEAN_MOTION":14.79929659,"ECCENTRICITY":8.853e-5,"INCLINATION":51.8992,"RA_OF_ASC_NODE":268.2895,"ARG_OF_PERICENTER":101.2284,"MEAN_ANOMALY":258.8778,"EPHEMERIS_TYPE":0,"CLASSIFICATION_TYPE":"U","NORAD_CAT_ID":64837,"ELEMENT_SET_NO":999,"REV_AT_EPOCH":3740,"BSTAR":0.00058729919,"MEAN_MOTION_DOT":4.258e-5,"MEAN_MOTION_DDOT":0},{"OBJECT_NAME":"KUIPER-00093","OBJECT_ID":"2025-151Y","EPOCH":"2026-03-15T06:31:28.341984","MEAN_MOTION":14.79896988,"ECCENTRICITY":8.361e-5,"INCLINATION":51.8989,"RA_OF_ASC_NODE":268.3935,"ARG_OF_PERICENTER":85.1914,"MEAN_ANOMALY":274.9144,"EPHEMERIS_TYPE":0,"CLASSIFICATION_TYPE":"U","NORAD_CAT_ID":64838,"ELEMENT_SET_NO":999,"REV_AT_EPOCH":3623,"BSTAR":0.00051534717,"MEAN_MOTION_DOT":3.706e-5,"MEAN_MOTION_DDOT":0},{"OBJECT_NAME":"KUIPER-00094","OBJECT_ID":"2025-151Z","EPOCH":"2026-03-15T03:49:46.303680","MEAN_MOTION":15.04404574,"ECCENTRICITY":0.00057295,"INCLINATION":51.8872,"RA_OF_ASC_NODE":237.2314,"ARG_OF_PERICENTER":309.6746,"MEAN_ANOMALY":50.372,"EPHEMERIS_TYPE":0,"CLASSIFICATION_TYPE":"U","NORAD_CAT_ID":64839,"ELEMENT_SET_NO":999,"REV_AT_EPOCH":3666,"BSTAR":0.00063499089,"MEAN_MOTION_DOT":8.706e-5,"MEAN_MOTION_DDOT":0},{"OBJECT_NAME":"KUIPER-00081","OBJECT_ID":"2025-171A","EPOCH":"2026-03-14T20:30:03.353472","MEAN_MOTION":14.79914388,"ECCENTRICITY":8.494e-5,"INCLINATION":51.8987,"RA_OF_ASC_NODE":125.2364,"ARG_OF_PERICENTER":72.1703,"MEAN_ANOMALY":287.9352,"EPHEMERIS_TYPE":0,"CLASSIFICATION_TYPE":"U","NORAD_CAT_ID":65132,"ELEMENT_SET_NO":999,"REV_AT_EPOCH":3380,"BSTAR":0.00062220965,"MEAN_MOTION_DOT":4.523e-5,"MEAN_MOTION_DDOT":0},{"OBJECT_NAME":"KUIPER-00088","OBJECT_ID":"2025-171B","EPOCH":"2026-03-14T13:33:52.268256","MEAN_MOTION":14.79921585,"ECCENTRICITY":7.039e-5,"INCLINATION":51.8986,"RA_OF_ASC_NODE":144.0195,"ARG_OF_PERICENTER":79.9382,"MEAN_ANOMALY":280.166,"EPHEMERIS_TYPE":0,"CLASSIFICATION_TYPE":"U","NORAD_CAT_ID":65133,"ELEMENT_SET_NO":999,"REV_AT_EPOCH":3351,"BSTAR":7.3506455e-5,"MEAN_MOTION_DOT":3.39e-6,"MEAN_MOTION_DDOT":0},{"OBJECT_NAME":"KUIPER-00095","OBJECT_ID":"2025-171C","EPOCH":"2026-03-15T06:00:00.999648","MEAN_MOTION":14.79992276,"ECCENTRICITY":0.00019936,"INCLINATION":51.8968,"RA_OF_ASC_NODE":121.0614,"ARG_OF_PERICENTER":110.4626,"MEAN_ANOMALY":185.2479,"EPHEMERIS_TYPE":0,"CLASSIFICATION_TYPE":"U","NORAD_CAT_ID":65134,"ELEMENT_SET_NO":999,"REV_AT_EPOCH":236,"BSTAR":-0.0030014217,"MEAN_MOTION_DOT":-0.00023057,"MEAN_MOTION_DDOT":0},{"OBJECT_NAME":"KUIPER-00096","OBJECT_ID":"2025-171D","EPOCH":"2026-03-14T21:03:09.438912","MEAN_MOTION":14.79933811,"ECCENTRICITY":5.849e-5,"INCLINATION":51.8984,"RA_OF_ASC_NODE":135.1429,"ARG_OF_PERICENTER":84.2244,"MEAN_ANOMALY":275.8785,"EPHEMERIS_TYPE":0,"CLASSIFICATION_TYPE":"U","NORAD_CAT_ID":65135,"ELEMENT_SET_NO":999,"REV_AT_EPOCH":3366,"BSTAR":1.4411568e-5,"MEAN_MOTION_DOT":-1.11e-6,"MEAN_MOTION_DDOT":0}]
