KUIPER-00082            
1 64828U 25151N   26074.24345831  .00003666  00000+0  50959-3 0  9992
2 64828  51.9006 263.5441 0000670  96.2120 263.8919 14.79932875 36304
KUIPER-00083            
1 64829U 25151P   26073.83022315  .00001767  00000+0  26082-3 0  9996
2 64829  51.8991 272.8597 0000791 100.8467 259.2584 14.79912231 37326
KUIPER-00084            
1 64830U 25151Q   26074.29212048  .00003714  00000+0  51609-3 0  9990
2 64830  51.9011 280.8025 0000615  77.3967 282.7064 14.79914624 36067
KUIPER-00085            
1 64831U 25151R   26074.20977278  .00003629  00000+0  50489-3 0  9995
2 64831  51.9015 263.7215 0000856 106.7522 253.3534 14.79927520 36294
KUIPER-00086            
1 64832U 25151S   26074.26647524  .00003629  00000+0  50475-3 0  9995
2 64832  51.9008 273.4402 0000941  77.5807 282.5260 14.79938401 36165
KUIPER-00087            
1 64833U 25151T   26074.21777317 -.00002161  00000+0 -25460-3 0  9993
2 64833  51.8984 256.1333 0000351 100.3246 259.7756 14.79931761 36399
KUIPER-00089            
1 64834U 25151U   26073.80687304  .00004440  00000+0  61438-3 0  9999
2 64834  51.8993 262.9592 0001257  91.8041 268.3065 14.79701684 36270
KUIPER-00090            
1 64835U 25151V   26074.22047511 -.00001443  00000+0 -16033-3 0  9990
2 64835  51.8979 253.6639 0000860  88.9291 271.1770 14.79935966 36432
KUIPER-00091            
1 64836U 25151W   26073.81049113  .00025265  00000+0  33051-2 0  9999
2 64836  51.8977 260.4608 0001087  47.7849 312.3206 14.80257439 36309
KUIPER-00092            
1 64837U 25151X   26073.73435861  .00004258  00000+0  58730-3 0  9991
2 64837  51.8992 268.2895 0000885 101.2284 258.8778 14.79929659 37403
KUIPER-00093            
1 64838U 25151Y   26074.27185581  .00003706  00000+0  51535-3 0  9996
2 64838  51.8989 268.3935 0000836  85.1914 274.9144 14.79896988 36236
KUIPER-00094            
1 64839U 25151Z   26074.15956370  .00008706  00000+0  63499-3 0  9993
2 64839  51.8872 237.2314 0005729 309.6746  50.3720 15.04404574 36665
KUIPER-00081            
1 65132U 25171A   26073.85420548  .00004523  00000+0  62221-3 0  9996
2 65132  51.8987 125.2364 0000849  72.1703 287.9352 14.79914388 33805
KUIPER-00088            
1 65133U 25171B   26073.56518829  .00000339  00000+0  73506-4 0  9995
2 65133  51.8986 144.0195 0000703  79.9382 280.1660 14.79921585 33515
KUIPER-00095            
1 65134U 25171C   26074.25001157 -.00023057  00000+0 -30014-2 0  9993
2 65134  51.8968 121.0614 0001993 110.4626 185.2479 14.79992276  2368
KUIPER-00096            
1 65135U 25171D   26073.87719258 -.00000111  00000+0  14412-4 0  9990
2 65135  51.8984 135.1429 0000584  84.2244 275.8785 14.79933811 33669
